NORAD_CAT_ID,OBJECT_NAME,OBJECT_TYPE,EPOCH,MEAN_MOTION,ECCENTRICITY,INCLINATION,RA_OF_ASC_NODE,ARG_OF_PERICENTER,MEAN_ANOMALY,BSTAR,MEAN_MOTION_DOT,MEAN_MOTION_DDOT,TLE_LINE0,TLE_LINE1,TLE_LINE2,SEMIMAJOR_AXIS,PERIOD,APOGEE,PERIGEE,DECAYED
53776.0,STARLINK-4708,PAYLOAD,2023-03-07 16:33:21,15.08842258,0.0001233,53.217,168.3519,94.4112,265.7021,0.00012974,1.778e-05,0.0,0 STARLINK-4708,1 53776U 22111D   23066.68983153  .00001778  00000-0  12974-3 0  9994,2 53776  53.2170 168.3519 0001233  94.4112 265.7021 15.08842258 28142,6917.873,95.437,540.591,538.886,0.0
53776.0,STARLINK-4708,PAYLOAD,2023-03-08 10:02:36,15.08839794,0.0001287,53.2161,165.0801,96.7404,263.3735,6.4808e-05,7.44e-06,0.0,0 STARLINK-4708,1 53776U 22111D   23067.41847285  .00000744  00000-0  64808-4 0  9997,2 53776  53.2161 165.0801 0001287  96.7404 263.3735 15.08839794 27166,6917.881,95.438,540.636,538.856,0.0
53776.0,STARLINK-4708,PAYLOAD,2023-03-08 16:24:08,15.08841493,0.0001297,53.2166,163.8909,99.3162,260.7977,7.508e-05,9.07e-06,0.0,0 STARLINK-4708,1 53776U 22111D   23067.68343238  .00000907  00000-0  75080-4 0  9990,2 53776  53.2166 163.8909 0001297  99.3162 260.7977 15.08841493 28290,6917.876,95.437,540.638,538.844,0.0
53776.0,STARLINK-4708,PAYLOAD,2023-03-09 13:04:09,15.0883843,0.0001314,53.2171,160.0253,99.4136,260.7005,9.5725e-05,1.236e-05,0.0,0 STARLINK-4708,1 53776U 22111D   23068.54455450  .00001236  00000-0  95725-4 0  9990,2 53776  53.2171 160.0253 0001314  99.4136 260.7005 15.08838430 27332,6917.885,95.438,540.659,538.841,0.0
53776.0,STARLINK-4708,PAYLOAD,2023-03-10 12:54:56,15.08840008,0.00013,53.2174,155.5655,98.513,261.601,8.8784e-05,1.125e-05,0.0,0 STARLINK-4708,1 53776U 22111D   23069.53815488  .00001125  00000-0  88784-4 0  9995,2 53776  53.2174 155.5655 0001300  98.5130 261.6010 15.08840008 28576,6917.88,95.438,540.645,538.846,0.0
53776.0,STARLINK-4708,PAYLOAD,2023-03-11 06:24:11,15.08832515,0.000131,53.2182,152.2955,94.7606,265.3536,1.9731e-05,2.6e-07,0.0,0 STARLINK-4708,1 53776U 22111D   23070.26680375  .00000026  00000-0  19731-4 0  9997,2 53776  53.2182 152.2955 0001310  94.7606 265.3536 15.08832515 27598,6917.903,95.438,540.675,538.862,0.0
53776.0,STARLINK-4708,PAYLOAD,2023-03-11 09:34:58,15.08832128,0.0001309,53.2182,151.7009,93.9334,266.1808,1.1993e-05,-9.7e-07,0.0,0 STARLINK-4708,1 53776U 22111D   23070.39928455 -.00000097  00000-0  11993-4 0  9996,2 53776  53.2182 151.7009 0001309  93.9334 266.1808 15.08832128 28704,6917.904,95.438,540.675,538.864,0.0
53776.0,STARLINK-4708,PAYLOAD,2023-03-11 12:45:44,15.08832832,0.0001297,53.218,151.1061,92.8209,267.2931,1.1107e-05,-1.11e-06,0.0,0 STARLINK-4708,1 53776U 22111D   23070.53176442 -.00000111  00000-0  11107-4 0  9997,2 53776  53.2180 151.1061 0001297  92.8209 267.2931 15.08832832 28722,6917.902,95.438,540.665,538.87,0.0
53776.0,STARLINK-4708,PAYLOAD,2023-03-12 06:14:58,15.08840353,0.0001303,53.2182,147.8353,92.255,267.8591,6.4474e-05,7.38e-06,0.0,0 STARLINK-4708,1 53776U 22111D   23071.26039941  .00000738  00000-0  64474-4 0  9999,2 53776  53.2182 147.8353 0001303  92.2550 267.8591 15.08840353 27747,6917.879,95.438,540.646,538.843,0.0
53776.0,STARLINK-4708,PAYLOAD,2023-03-12 12:36:30,15.08842093,0.0001293,53.2183,146.646,90.1559,269.9582,7.5139e-05,9.08e-06,0.0,0 STARLINK-4708,1 53776U 22111D   23071.52535790  .00000908  00000-0  75139-4 0  9990,2 53776  53.2183 146.6460 0001293  90.1559 269.9582 15.08842093 28879,6917.874,95.437,540.633,538.845,0.0
53776.0,STARLINK-4708,PAYLOAD,2023-03-13 04:30:22,15.0883871,0.0001258,53.2179,143.6721,87.2092,272.9044,0.00012361,1.68e-05,0.0,0 STARLINK-4708,1 53776U 22111D   23072.18775847  .00001680  00000-0  12361-3 0  9997,2 53776  53.2179 143.6721 0001258  87.2092 272.9044 15.08838710 28970,6917.884,95.438,540.62,538.879,0.0
53776.0,STARLINK-4708,PAYLOAD,2023-03-14 04:21:09,15.08841499,0.0001263,53.218,139.2118,82.8295,277.2841,1.4095e-05,-6.4e-07,0.0,0 STARLINK-4708,1 53776U 22111D   23073.18136073 -.00000064  00000-0  14095-4 0  9993,2 53776  53.2180 139.2118 0001263  82.8295 277.2841 15.08841499 28033,6917.876,95.437,540.615,538.867,0.0
53776.0,STARLINK-4708,PAYLOAD,2023-03-14 13:53:28,15.08840805,0.0001251,53.2176,137.4272,82.6966,277.4168,4.2248e-06,-2.21e-06,0.0,0 STARLINK-4708,1 53776U 22111D   23073.57880093 -.00000221  00000-0  42248-5 0  9991,2 53776  53.2176 137.4272 0001251  82.6966 277.4168 15.08840805 29180,6917.878,95.438,540.608,538.878,0.0
53776.0,STARLINK-4708,PAYLOAD,2023-03-15 10:33:28,15.08844013,0.0001227,53.2171,133.5612,85.4286,274.6847,7.9819e-05,9.83e-06,0.0,0 STARLINK-4708,1 53776U 22111D   23074.43991493  .00000983  00000-0  79819-4 0  9991,2 53776  53.2171 133.5612 0001227  85.4286 274.6847 15.08844013 28221,6917.868,95.437,540.582,538.884,0.0
53776.0,STARLINK-4708,PAYLOAD,2023-03-16 04:02:43,15.08836383,0.0001231,53.2164,130.2902,83.6595,276.4537,3.8514e-05,3.25e-06,0.0,0 STARLINK-4708,1 53776U 22111D   23075.16856051  .00000325  00000-0  38514-4 0  9999,2 53776  53.2164 130.2902 0001231  83.6595 276.4537 15.08836383 28336,6917.891,95.438,540.608,538.905,0.0
53776.0,STARLINK-4708,PAYLOAD,2023-03-16 13:35:02,15.0883648,0.0001208,53.2166,128.5059,85.1554,274.9576,2.9936e-05,1.89e-06,0.0,0 STARLINK-4708,1 53776U 22111D   23075.56600109  .00000189  00000-0  29936-4 0  9990,2 53776  53.2166 128.5059 0001208  85.1554 274.9576 15.08836480 29488,6917.891,95.438,540.592,538.92,0.0
53776.0,STARLINK-4708,PAYLOAD,2023-03-16 19:56:35,15.08833133,0.00012,53.2161,127.3163,83.8201,276.2928,-7.1897e-06,-4.02e-06,0.0,0 STARLINK-4708,1 53776U 22111D   23075.83096495 -.00000402  00000-0 -71897-5 0  9991,2 53776  53.2161 127.3163 0001200  83.8201 276.2928 15.08833133 29525,6917.901,95.438,540.597,538.936,0.0
53776.0,STARLINK-4708,PAYLOAD,2023-03-17 10:15:03,15.08834179,0.0001211,53.2164,124.6401,89.5657,270.5474,-4.6808e-05,-1.033e-05,0.0,0 STARLINK-4708,1 53776U 22111D   23076.42712751 -.00001033  00000-0 -46808-4 0  9991,2 53776  53.2164 124.6401 0001211  89.5657 270.5474 15.08834179 28526,6917.898,95.438,540.601,538.925,0.0
53776.0,STARLINK-4708,PAYLOAD,2023-03-17 19:47:22,15.0883207,0.0001188,53.2164,122.856,91.1529,268.96,-1.2058e-05,-4.8e-06,0.0,0 STARLINK-4708,1 53776U 22111D   23076.82456910 -.00000480  00000-0 -12058-4 0  9992,2 53776  53.2164 122.8560 0001188  91.1529 268.9600 15.08832070 29679,6917.905,95.438,540.591,538.948,0.0
53776.0,STARLINK-4708,PAYLOAD,2023-03-18 19:38:09,15.08835569,0.0001122,53.2164,118.3954,89.9001,270.212,5.6303e-05,6.08e-06,0.0,0 STARLINK-4708,1 53776U 22111D   23077.81816784  .00000608  00000-0  56303-4 0  9992,2 53776  53.2164 118.3954 0001122  89.9001 270.2120 15.08835569 28739,6917.894,95.438,540.535,538.983,0.0
53776.0,STARLINK-4708,PAYLOAD,2023-03-19 11:32:00,15.08839692,0.0001082,53.2163,115.4213,87.5947,272.5169,9.8119e-05,1.274e-05,0.0,0 STARLINK-4708,1 53776U 22111D   23078.48056557  .00001274  00000-0  98119-4 0  9991,2 53776  53.2163 115.4213 0001082  87.5947 272.5169 15.08839692 29923,6917.881,95.438,540.495,538.998,0.0
53776.0,STARLINK-4708,PAYLOAD,2023-03-19 19:28:56,15.08840685,0.0001083,53.2163,113.9345,87.9012,272.2104,9.1049e-05,1.162e-05,0.0,0 STARLINK-4708,1 53776U 22111D   23078.81176503  .00001162  00000-0  91049-4 0  9993,2 53776  53.2163 113.9345 0001083  87.9012 272.2104 15.08840685 29975,6917.878,95.438,540.493,538.994,0.0
53776.0,STARLINK-4708,PAYLOAD,2023-03-20 08:12:18,15.08633732,9.73e-05,53.2165,111.5565,91.6636,268.4467,-0.0016225,-0.00025872,0.0,0 STARLINK-4708,1 53776U 22111D   23079.34188398 -.00025872  00000-0 -16225-2 0  9994,2 53776  53.2165 111.5565 0000973  91.6636 268.4467 15.08633732 28966,6918.511,95.451,541.049,539.703,0.0
53776.0,STARLINK-4708,PAYLOAD,2023-03-20 11:23:11,15.08564186,0.0001304,53.2169,110.9626,85.3397,274.7744,-0.0021839,-0.00034617,0.0,0 STARLINK-4708,1 53776U 22111D   23079.47444284 -.00034617  00000-0 -21839-2 0  9991,2 53776  53.2169 110.9626 0001304  85.3397 274.7744 15.08564186 28980,6918.724,95.455,541.491,539.686,0.0
53776.0,STARLINK-4708,PAYLOAD,2023-03-20 19:20:22,15.08439746,0.0001929,53.2169,109.4765,78.0583,282.0625,-0.0030063,-0.00047302,0.0,0 STARLINK-4708,1 53776U 22111D   23079.80581535 -.00047302  00000-0 -30063-2 0  9993,2 53776  53.2169 109.4765 0001929  78.0583 282.0625 15.08439746 29036,6919.104,95.463,542.304,539.634,0.0
53776.0,STARLINK-4708,PAYLOAD,2023-03-21 08:04:10,15.08061794,0.0001393,53.2172,107.1006,109.2241,250.8901,-0.0056741,-0.00087614,0.0,0 STARLINK-4708,1 53776U 22111D   23080.33623013 -.00087614  00000-0 -56741-2 0  9992,2 53776  53.2172 107.1006 0001393 109.2241 250.8901 15.08061794 29119,6920.26,95.487,543.089,541.161,0.0
53776.0,STARLINK-4708,PAYLOAD,2023-03-21 12:50:36,15.07948107,0.0001544,53.2174,106.2092,111.3667,248.749,-0.0063175,-0.00097087,0.0,0 STARLINK-4708,1 53776U 22111D   23080.53514107 -.00097087  00000-0 -63175-2 0  9991,2 53776  53.2174 106.2092 0001544 111.3667 248.7490 15.07948107 29143,6920.608,95.494,543.541,541.404,0.0
53776.0,STARLINK-4708,PAYLOAD,2023-03-21 19:12:29,15.07833917,0.0001454,53.2174,105.021,97.6296,262.4861,-0.0067931,-0.00103951,0.0,0 STARLINK-4708,1 53776U 22111D   23080.80034517 -.00103951  00000-0 -67931-2 0  9995,2 53776  53.2174 105.0210 0001454  97.6296 262.4861 15.07833917 29187,6920.957,95.501,543.829,541.816,0.0
53776.0,STARLINK-4708,PAYLOAD,2023-03-22 08:00:01,15.07217641,0.0001868,53.215,102.6334,83.5428,291.5351,-0.0023307,-0.00035597,0.0,0 STARLINK-4708,1 53776U 22111D   23081.33334491 -.00035597  00000-0 -23307-2 0  9997,2 53776  53.2150 102.6334 0001868  83.5428 291.5351 15.07217641 29267,6922.844,95.54,546.002,543.416,0.0
53776.0,STARLINK-4708,PAYLOAD,2023-03-22 22:00:00,15.07180097,0.0001803,53.2153,100.0195,90.5637,211.3801,0.0031508,0.00047972,0.0,0 STARLINK-4708,1 53776U 22111D   23081.91667824  .00047972  00000-0  31508-2 0  9990,2 53776  53.2153 100.0195 0001803  90.5637 211.3801 15.07180097 29350,6922.959,95.543,546.072,543.575,0.0
